GLOBALSTAR M035         
1 25851U 99037A   24191.95109819 -.00000045  00000+0  70449-3 0  9994
2 25851  51.9955  98.1778 0013157 145.1390 298.3333 11.04531319 58447
GLOBALSTAR M032         
1 25852U 99037B   24191.68628780  .00000022  00000+0  28499-2 0  9999
2 25852  51.9971 307.6006 0009481 309.6845  50.3118 11.19059116 96440
GLOBALSTAR M051         
1 25853U 99037C   24191.87924227 -.00000075  00000+0 -67196-4 0  9995
2 25853  51.9770 146.6613 0001708 330.4486  29.6228 11.42199875 93272
GLOBALSTAR M048         
1 25872U 99041A   24191.89429007 -.00000051  00000+0  50266-3 0  9991
2 25872  51.9382  68.4253 0013309 315.5455 128.5936 11.33847187 86153
GLOBALSTAR M026         
1 25873U 99041B   24191.43849366 -.00000086  00000+0 -79634-3 0  9995
2 25873  51.9972 220.8883 0001160  29.0408 111.7041 11.06833823110532
GLOBALSTAR M028         
1 25875U 99041D   24191.91495862 -.00000017  00000+0  54272-3 0  9992
2 25875  51.9611 133.6417 0063863  48.0486 312.5793 12.50559605147351
